#cP2022 10  1  0  0  0.00000000      96 ORBIT IGb14 HLM  IGS
## 2229 518400.00000000   900.00000000 59853 0.0000000000000
+   32   G01G02G03G04G05G06G07G08G09G10G11G12G13G14G15G16G17
+        G18G19G20G21G22G23G24G25G26G27G28G29G30G31G32  0  0
+          0  0  0  0  0  0  0  0  0  0  0  0  0  0  0  0  0
+          0  0  0  0  0  0  0  0  0  0  0  0  0  0  0  0  0
+          0  0  0  0  0  0  0  0  0  0  0  0  0  0  0  0  0
++         2  2  2  2  2  2  2  2  2  1  2  2  2  2  1  2  2
++         2  2  1  2  2  2  2  1  1  2  2  2  2  2  1  0  0
++         0  0  0  0  0  0  0  0  0  0  0  0  0  0  0  0  0
++         0  0  0  0  0  0  0  0  0  0  0  0  0  0  0  0  0
++         0  0  0  0  0  0  0  0  0  0  0  0  0  0  0  0  0
%c G  cc GPS ccc cccc cccc cccc cccc ccccc ccccc ccccc ccccc
%c cc cc ccc ccc cccc cccc cccc cccc ccccc ccccc ccccc ccccc
%f  1.2500000  1.025000000  0.00000000000  0.000000000000000
%f  0.0000000  0.000000000  0.00000000000  0.000000000000000
%i    0    0    0    0      0      0      0      0         0
%i    0    0    0    0      0      0      0      0         0
/* FINAL ORBIT COMBINATION FROM WEIGHTED AVERAGE OF:        
/* cod emr esa gfz grg jpl mit ngs sio                      
/* REFERENCED TO IGS TIME (IGST) AND TO WEIGHTED MEAN POLE: 
/* PCV:IGS14_2223 OL/AL:FES2004  NONE     Y  ORB:CMB CLK:CMB
*  2022 10  1  2 15  0.00000000
PG01    376.392873 -15369.770408 -21919.674223    274.904547  3  5  4  89       
PG02  -5649.076622  17555.344730  19830.253420   -644.121741  7  5  5  98       
PG03  -6973.837817 -20146.643858 -16031.579436   -358.892321  7  4  4  97       
PG04    237.279398 -25451.735397   7414.370783   -110.655524  5  6  5  67       
PG05  -4133.370945  15367.795255  21067.907771    -98.675002  6  4  4 108       
PG06 -25542.821387   6422.206159  -3657.944796    477.791747  6  4  5  85       
PG07 -15995.826574  -9230.807264  19676.272080    302.991225  6  7  6  72       
PG08   5834.510123 -25578.130490   2553.444213    -86.878350  6  5  5  76       
PG09  -8716.350041 -18905.585950  16393.553653   -289.229596  6  5  6  84       
PG10  22502.658697   9567.527544 -10596.212184     -5.568406  7  4  4  93       
PG11 -22380.825166  12139.674145   7496.415565    -21.107511 10  7  7  84       
PG12   5058.093587  20622.709081 -16286.573019   -286.804070  6  5  5  91       
PG13 -13154.201291  21217.475862   8621.916553    397.635496  4  8  6  76       
PG14 -22231.162737 -11416.401692  -9147.270870    -99.303824  7  8  4  96       
PG15  -2627.091048  26165.076363   1872.593877    -24.625953  6  6  2  71       
PG16  11541.506187  -9559.898166  21664.933359   -525.417122  6  4  5  72       
PG17 -13826.955609  -5007.035784 -21676.771965    664.403773  4  6  4  83       
PG18  16734.195879   8045.943289  19039.588797     30.356372  4  7  7  69       
PG19 -16143.288465   6085.092445 -20360.283520    217.811510  6  6  4  35       
PG20 -16562.161628   6601.303084  19625.348661    482.054738  4  4  5  80       
PG21   9299.856162 -17242.539375 -16963.861179    158.712405  8  4  5  63       
PG22  15920.975098  -9608.931365 -18478.144832    337.486571  8  4  4  94       
PG23  21144.665509  16170.313996   -827.941489     -0.630673  2  6  4  87       
PG24  -3714.560996  17660.339617 -19679.688778    116.591628  5  2  4  97       
PG25  15943.551788  20170.064706  -7500.094744    377.696465  4     4  99       
PG26  19077.759794  -2586.714672  18339.718601    230.724914  5  5  3  70       
PG27  12488.404314 -19100.121611  13029.888741    204.875220  7  5  5  85       
PG28 -20022.015159  -4409.055227 -16243.769490    334.001569  3 10  4 121       
PG29   5926.490980  20178.742722  16126.568688   -556.020910  7  6  6  85       
PG30 -23821.291693  -1195.905148  12039.380994   -537.194012  8  7  8  95       
PG31  25865.515770  -6572.323132  -2732.755100   -195.232963  8  6  5 100       
PG32  15153.915962   1414.314741 -21611.976309   -249.428327  3  4  5  83       
*  2022 10  1  2 30  0.00000000
PG01   2637.907280 -16167.755068 -21136.438820    274.898890  4  5  5  86       
PG02  -7539.573393  18374.538024  18372.497761   -644.120611  7  5  5  73       
PG03  -5396.597586 -19059.846957 -17868.562719   -358.896853  7  4  4 102       
PG04    607.885043 -26088.027903   4663.588704   -110.650235  5  6  5  74       
PG05  -6168.774287  13954.633732  21555.109602    -98.676328  6  4  4  95       
PG06 -25058.484971   6054.306246  -6485.773795    477.802199  5  5  5  85       
PG07 -13956.614655 -10113.369834  20744.360224    302.987859  6  6  5  68       
PG08   6051.491234 -25084.291001   5384.086115    -86.879836  6  5  4  63       
PG09  -8298.730360 -20644.066088  14397.944252   -289.225073  5  4  6  72       
PG10  23236.596080  10370.097797  -8000.484483     -5.570589  6  4  4  85       
PG11 -23121.284565  12136.482010   4747.382492    -21.110812  9  8  7  84       
PG12   3554.384272  19430.160732 -18072.388004   -286.809323  6  6  4  83       
PG13 -13044.461499  20041.197357  11189.289906    397.641828  5  8  6  78       
PG14 -22746.354611 -12192.396070  -6510.180823    -99.300788  6  7  4 106       
PG15  -2984.102582  25734.069280   4651.159628    -24.623313  6  6  2  54       
PG16  13359.473098  -7820.680129  21359.969968   -525.417780  6  4  5  67       
PG17 -13266.824893  -7495.719227 -21307.925883    664.407221  4  6  4  86       
PG18  14663.498366   8918.171802  20303.457823     30.344553  6  6  6  85       
PG19 -15631.069729   3802.827062 -21325.044018    217.815817  6  6  4  66       
PG20 -18392.282720   5407.556061  18295.279833    482.052427  4  5  5  85       
PG21  11158.686903 -17910.616080 -15046.848774    158.712073  8  5  5  80       
PG22  15531.860514  -7363.277263 -19781.693120    337.493022  7  4  4 101       
PG23  20957.620451  16303.806777   2037.632868     -0.631044  2  7  5  95       
PG24  -5703.775169  18459.957480 -18368.404049    116.579032  5  3  4 100       
PG25  15045.756483  19754.457185 -10087.619766    377.700052  4  1  4 101       
PG26  20635.959670  -1289.527840  16756.864418    230.726292  5  5  3  81       
PG27  12448.590209 -17425.264795  15231.209959    204.870425  7  5  5  91       
PG28 -21210.810776  -5817.455280 -14205.686151    333.998270  2 10  4 125       
PG29   5395.354112  21833.770208  14018.576536   -556.023689  7  7  6  95       
PG30 -22516.068462  -1947.343909  14243.321463   -537.194138  8  7  8  68       
PG31  25524.021473  -6200.675312  -5499.404778   -195.234259  7  5  5  99       
PG32  14810.895556   3893.466892 -21562.988997   -249.438843  4  4  4  88       
*  2022 10  1  2 45  0.00000000
PG01   4755.760564 -17050.190076 -19996.845146    274.893238  4  5  5  75       
PG02  -9230.911970  19208.655410  16615.612392   -644.119277  7  6  5  76       
PG03  -3606.591271 -17952.268064 -19402.086946   -358.901378  6  3  4  96       
PG04    906.382060 -26428.335824   1832.070871   -110.644937  4  6  5  85       
PG05  -8302.486152  12630.949302  21665.014144    -98.677193  6  5  5  97       
PG06 -24310.049624   5527.369303  -9202.252386    477.812604  5  5  5  61       
PG07 -11873.530692 -11143.936807  21471.482561    302.984822  6  6  5  75       
PG08   6272.823314 -24284.983987   8119.935897    -86.881939  6  6  4  84       
PG09  -7986.847835 -22161.248159  12152.913445   -289.220567  5  4  6  76       
PG10  23766.536732  10957.798425  -5268.783184     -5.572041  6  5  4  77       
PG11 -23567.549016  12053.899855   1916.461753    -21.114114  9  8  6  98       
PG12   1847.282803  18205.346852 -19554.538793   -286.814565  7  6  4  98       
PG13 -12934.984316  18585.121998  13560.586527    397.648267  5  8  6  73       
PG14 -23058.060865 -12757.719870  -3761.747608    -99.297779  6  7  4  92       
PG15  -3377.170480  25007.424990   7347.436028    -24.620398  6  6  2  63       
PG16  15219.602648  -6219.300172  20679.891330   -525.418700  6  4  5  28       
PG17 -12850.192335  -9946.268806 -20556.977901    664.410683  4  5  5  80       
PG18  12529.252586   9951.916159  21218.948254     30.332742  6  6  6  62       
PG19 -15228.482989   1412.365901 -21929.092136    217.820535  6  6  4  78       
PG20 -20128.611224   4377.678094  16648.236467    482.049273  3  5  4  79       
PG21  12772.583318 -18551.903832 -12851.199065    158.711340  7  5  4  57       
PG22  15235.757152  -4972.219445 -20730.914512    337.499168  6  4  4 103       
PG23  20509.014596  16270.472772   4868.412716     -0.631408     7  5  79       
PG24  -7514.232983  19274.177271 -16744.544409    116.566587  5  4  5 105       
PG25  13898.382793  19226.978031 -12506.195658    377.703615  5  3  4  92       
PG26  22088.138110   -173.636667  14887.369907    230.727654  5  5  3  76       
PG27  12476.555690 -15514.636268  17161.943554    204.865609  7  6  5  95       
PG28 -22279.550008  -6997.912602 -11912.417947    333.995164  2 10  4 129       
PG29   4996.698689  23265.138745  11667.736723   -556.026508  7  7  6  92       
PG30 -21035.587131  -2857.263446  16206.332687   -537.194234  7  7  8  77       
PG31  24923.859181  -5690.210025  -8174.285522   -195.235586  6  5  5  99       
PG32  14598.089191   6357.984739 -21138.236298   -249.449375  5  4  4  79       
EOF
